      2.10          N: GNSS NAV DATA                        RINEX VERSION / TYPE
fic2rin                                 09/15/2021 00:17:11 PGM / RUN BY / DATE
                                                            END OF HEADER
28 21  9 14 16  0  0.0 5.012284964323e-04-7.048583938740e-12 0.000000000000e+00
    7.800000000000e+01 7.603125000000e+01 4.130172038244e-09 3.452171949504e-01
    3.958120942116e-06 1.748629251961e-02 9.231269359589e-06 5.153724779129e+03
    2.304000000000e+05-1.769512891769e-07-1.168109688320e+00-2.328306436539e-07
    9.711353863612e-01 2.101562500000e+02-1.335473599402e+00-8.141053393266e-09
   -2.632252501025e-10 1.000000000000e+00 2.175000000000e+03 0.000000000000e+00
    3.400000000000e+00 6.300000000000e+01-1.117587089539e-08 7.800000000000e+01
    2.232000000000e+05 4.000000000000e+00
 6 21  9 14 15 59 44.0 7.437961176038e-05 7.275957614183e-12 0.000000000000e+00
    0.000000000000e+00-7.096875000000e+01 4.135886561991e-09-2.076109825508e+00
   -3.540888428688e-06 2.163457334973e-03 3.762543201447e-06 5.153578147888e+03
    2.303840000000e+05-1.117587089539e-08 8.346985377788e-01 9.313225746155e-08
    9.848486414590e-01 3.213750000000e+02-1.010389960809e+00-8.031763126602e-09
    2.535819912792e-11 1.000000000000e+00 2.175000000000e+03 0.000000000000e+00
    2.400000000000e+00 0.000000000000e+00 3.725290298462e-09 0.000000000000e+00
    2.246700000000e+05 4.000000000000e+00
25 21  9 14 15 59 44.0 2.082008868456e-04 6.252776074689e-12 0.000000000000e+00
    3.000000000000e+00 6.612500000000e+01 4.264820504035e-09 2.377718453632e+00
    3.362074494362e-06 9.873180417344e-03 8.726492524147e-06 5.153575208664e+03
    2.303840000000e+05 4.097819328308e-08-1.265216124781e+00-1.844018697739e-07
    9.593469905957e-01 2.086562500000e+02 9.666559472946e-01-7.837469319199e-09
   -1.600066649198e-10 1.000000000000e+00 2.175000000000e+03 0.000000000000e+00
    2.400000000000e+00 0.000000000000e+00 5.587935447693e-09 3.000000000000e+00
    2.250900000000e+05 4.000000000000e+00
20 21  9 14 15 59 44.0 5.191406235099e-04-2.273736754432e-13 0.000000000000e+00
    3.700000000000e+01-9.056250000000e+01 5.076282876129e-09-1.223891023859e+00
   -4.595145583153e-06 5.532432114705e-03 7.778406143188e-06 5.153654294968e+03
    2.303840000000e+05 6.146728992462e-08 1.730268162031e+00-4.470348358154e-08
    9.394160966683e-01 2.179375000000e+02 2.984446552350e+00-8.282845013741e-09
    2.257236880119e-10 1.000000000000e+00 2.175000000000e+03 0.000000000000e+00
    2.400000000000e+00 0.000000000000e+00-8.381903171539e-09 3.700000000000e+01
    2.300400000000e+05 4.000000000000e+00
 6 21  9 14 17 59 44.0 7.443269714713e-05 7.275957614183e-12 0.000000000000e+00
    1.000000000000e+01-7.306250000000e+01 4.115171413407e-09-1.026069218347e+00
   -3.904104232788e-06 2.163589699194e-03 3.997236490250e-06 5.153577367783e+03
    2.375840000000e+05-3.911554813385e-08 8.346402551225e-01 2.235174179077e-08
    9.848486721803e-01 3.181875000000e+02-1.010193502614e+00-8.091765625946e-09
    4.714482091388e-11 1.000000000000e+00 2.175000000000e+03 0.000000000000e+00
    2.400000000000e+00 0.000000000000e+00 3.725290298462e-09 1.000000000000e+01
    2.304000000000e+05 4.000000000000e+00
25 21  9 14 17 59 44.0 2.082460559905e-04 6.252776074689e-12 0.000000000000e+00
    8.000000000000e+00 6.950000000000e+01 4.216604209919e-09-2.855183995931e+00
    3.678724169731e-06 9.872719412670e-03 9.087845683098e-06 5.153575851440e+03
    2.375840000000e+05 1.676380634308e-08-1.265271436251e+00-2.235174179077e-08
    9.593460309215e-01 2.010625000000e+02 9.666123011337e-01-7.709964008091e-09
   -2.296524230881e-10 1.000000000000e+00 2.175000000000e+03 0.000000000000e+00
    2.400000000000e+00 0.000000000000e+00 5.587935447693e-09 8.000000000000e+00
    2.304000000000e+05 4.000000000000e+00
20 21  9 14 17 59 44.0 5.191392265260e-04-2.273736754432e-13 0.000000000000e+00
    4.000000000000e+01-1.027500000000e+02 5.034852578962e-09-1.734557433451e-01
   -5.226582288742e-06 5.533662042581e-03 8.063390851021e-06 5.153657699585e+03
    2.375840000000e+05 5.587935447693e-08 1.730208548119e+00-5.587935447693e-09
    9.394176985636e-01 2.127812500000e+02 2.984206551861e+00-8.298202796312e-09
    2.239378993409e-10 1.000000000000e+00 2.175000000000e+03 0.000000000000e+00
    2.400000000000e+00 0.000000000000e+00-8.381903171539e-09 4.000000000000e+01
    2.304000000000e+05 4.000000000000e+00
 2 21  9 14 18  0  0.0-6.323046982288e-04-2.160049916711e-12 0.000000000000e+00
    4.900000000000e+01-5.681250000000e+01 4.701624412957e-09-1.087061122836e+00
   -2.592802047729e-06 2.025924134068e-02 3.844499588013e-06 5.153756422043e+03
    2.376000000000e+05-3.390014171600e-07 7.568181730176e-01 2.998858690262e-07
    9.639930062924e-01 3.142187500000e+02-1.493993556268e+00-8.595000873429e-09
    1.028614274485e-10 1.000000000000e+00 2.175000000000e+03 0.000000000000e+00
    2.400000000000e+00 0.000000000000e+00-1.769512891769e-08 4.900000000000e+01
    2.304000000000e+05 4.000000000000e+00
 1 21  9 14 18  0  0.0 5.677277222276e-04-1.102762325900e-11 0.000000000000e+00
    1.090000000000e+02-6.196875000000e+01 4.058383333670e-09-1.355539374376e+00
   -3.080815076828e-06 1.106462941971e-02 4.300847649574e-06 5.153676774979e+03
    2.376000000000e+05 2.179294824600e-07 8.428943446756e-01 4.284083843231e-08
    9.854207141110e-01 3.049062500000e+02 8.901588710557e-01-7.973189258193e-09
    8.428922527028e-11 1.000000000000e+00 2.175000000000e+03 0.000000000000e+00
    3.400000000000e+00 0.000000000000e+00 5.122274160385e-09 1.090000000000e+02
    2.304000000000e+05 4.000000000000e+00
 3 21  9 14 18  0  0.0-2.893274649978e-04-1.330136001343e-11 0.000000000000e+00
    1.800000000000e+01-8.256250000000e+01 4.274463762859e-09-2.470036416897e+00
   -4.295259714127e-06 3.860946977511e-03 9.302049875259e-06 5.153776760101e+03
    2.376000000000e+05 4.284083843231e-08 1.879753846356e+00-5.029141902924e-08
    9.704278869938e-01 2.040000000000e+02 9.787338209008e-01-7.819254274755e-09
    2.907263956356e-10 1.000000000000e+00 2.175000000000e+03 0.000000000000e+00
    2.400000000000e+00 0.000000000000e+00 1.862645149231e-09 1.800000000000e+01
    2.304000000000e+05 4.000000000000e+00
16 21  9 14 18  0  0.0-3.905743360519e-04-6.366462912410e-12 0.000000000000e+00
    1.800000000000e+01 6.637500000000e+01 4.059097649138e-09 1.765036107170e+00
    3.425404429436e-06 1.222179154865e-02 8.571892976761e-06 5.153762855530e+03
    2.376000000000e+05-2.216547727585e-07-1.171687425644e+00 3.725290298462e-09
    9.720188616072e-01 2.250625000000e+02 6.787399500490e-01-7.883185509176e-09
   -2.975123925853e-10 1.000000000000e+00 2.175000000000e+03 0.000000000000e+00
    2.400000000000e+00 0.000000000000e+00-1.024454832077e-08 1.800000000000e+01
    2.304000000000e+05 4.000000000000e+00
12 21  9 14 18  0  0.0-9.735813364387e-05-5.456968210638e-12 0.000000000000e+00
    7.400000000000e+01 7.953125000000e+01 3.918020344131e-09-2.692470356175e+00
    4.224479198456e-06 8.233824395575e-03 9.467825293541e-06 5.153686981201e+03
    2.376000000000e+05 3.725290298462e-09-1.190389311853e+00-3.539025783539e-08
    9.719903990730e-01 2.014062500000e+02 1.229141786483e+00-7.587458905262e-09
   -2.325096849617e-10 1.000000000000e+00 2.175000000000e+03 0.000000000000e+00
    2.400000000000e+00 0.000000000000e+00-1.257285475731e-08 7.400000000000e+01
    2.304000000000e+05 4.000000000000e+00
10 21  9 14 18  0  0.0-2.032523043454e-04-7.844391802792e-12 0.000000000000e+00
    4.600000000000e+01-7.546875000000e+01 4.204103689222e-09 2.970813523679e+00
   -3.868713974953e-06 6.934530218132e-03 8.746981620789e-06 5.153680959702e+03
    2.376000000000e+05-1.862645149231e-08 1.876912417645e+00-1.024454832077e-07
    9.702819711559e-01 2.187500000000e+02-2.584440790253e+00-7.709606850357e-09
    2.292952653539e-10 1.000000000000e+00 2.175000000000e+03 0.000000000000e+00
    2.400000000000e+00 0.000000000000e+00 2.328306436539e-09 4.600000000000e+01
    2.304000000000e+05 4.000000000000e+00
 9 21  9 14 18  0  0.0-3.609424456954e-04-5.684341886081e-13 0.000000000000e+00
    2.500000000000e+01-8.750000000000e+00 4.849487714914e-09 1.313750503553e+00
   -5.960464477539e-07 2.156572882086e-03 8.316710591316e-06 5.153706287384e+03
    2.376000000000e+05 5.587935447693e-09 2.908962184077e+00-2.793967723846e-08
    9.539912621367e-01 2.145625000000e+02 1.813915898455e+00-8.013190924423e-09
    2.050085394286e-10 1.000000000000e+00 2.175000000000e+03 0.000000000000e+00
    2.400000000000e+00 0.000000000000e+00 1.396983861923e-09 2.500000000000e+01
    2.304000000000e+05 4.000000000000e+00
 8 21  9 14 18  0  0.0-3.647524863482e-05-1.477928890381e-12 0.000000000000e+00
    2.700000000000e+01 5.650000000000e+01 4.283035548479e-09 9.728079479158e-01
    3.013759851456e-06 6.491814274341e-03 4.202127456665e-06 5.153655612946e+03
    2.376000000000e+05 5.774199962616e-08-2.334337007763e-01 1.508742570877e-07
    9.665735411192e-01 3.005625000000e+02 5.668631275532e-02-8.139981920063e-09
    3.571577341961e-11 1.000000000000e+00 2.175000000000e+03 0.000000000000e+00
    2.400000000000e+00 0.000000000000e+00 5.122274160385e-09 2.700000000000e+01
    2.304000000000e+05 4.000000000000e+00
 5 21  9 14 18  0  0.0-5.440786480904e-05-1.250555214938e-12 0.000000000000e+00
    8.400000000000e+01-9.650000000000e+01 4.616263714484e-09 1.257979734671e+00
   -4.861503839493e-06 6.087060086429e-03 9.043142199516e-06 5.153590164185e+03
    2.376000000000e+05-1.247972249985e-07 1.841419833590e+00 9.499490261078e-08
    9.573889288746e-01 2.065312500000e+02 9.911794955188e-01-8.081408051655e-09
    1.982225424788e-10 1.000000000000e+00 2.175000000000e+03 0.000000000000e+00
    2.400000000000e+00 0.000000000000e+00-1.117587089539e-08 8.400000000000e+01
    2.304000000000e+05 4.000000000000e+00
